FLOCK 4G-13             
1 62621U 25009N   26068.70638971  .00053076  00000+0  16695-2 0  9995
2 62621  97.4019 151.0918 0003801 292.7207  67.3633 15.32770015 63700
STARLINK-34459          
1 64449U 25130M   26068.37527751  .00004773  00000+0  17344-3 0  9999
2 64449  53.1604  90.0838 0001454  92.9143 267.2024 15.30151864 40650
